STARLINK-6158           
1 56375U 23061B   24110.85024708  .00007568  00000+0  57445-3 0  9993
2 56375  43.0038 340.5741 0001292 240.2325 119.8389 15.02552584 53130
STARLINK-6188           
1 56376U 23061C   24109.98936729  .00018901  00000+0  14097-2 0  9999
2 56376  43.0038 345.2948 0001130 267.4673  92.6040 15.02557193 53009
STARLINK-6189           
1 56377U 23061D   24110.71395301  .00002535  00000+0  20259-3 0  9992
2 56377  43.0047 341.2714 0000924 260.7091  99.3647 15.02551763 53113
STARLINK-6191           
1 56378U 23061E   24110.70398784  .00009364  00000+0  70748-3 0  9995
2 56378  43.0021 341.1922 0000918 282.7520  77.3220 15.02526615 53111
STARLINK-6157           
1 56379U 23061F   24110.83582421  .00001709  00000+0  14159-3 0  9992
2 56379  43.0041 340.4652 0001691 242.6543 117.4127 15.02531886 54237
STARLINK-6161           
1 56380U 23061G   24110.83913731  .00003642  00000+0  28444-3 0  9996
2 56380  43.0063 340.4873 0001763 224.3207 135.7494 15.02546003 53137
STARLINK-6159           
1 56381U 23061H   24110.84247457  .00004169  00000+0  32350-3 0  9999
2 56381  43.0030 340.5134 0000895 275.3234  84.7506 15.02539554 53134
STARLINK-6160           
1 56382U 23061J   24110.89674589  .00033439  00000+0  24765-2 0  9997
2 56382  43.0039 340.0622 0001351 283.2814  76.7877 15.02569245 53144
STARLINK-6166           
1 56383U 23061K   24110.89896850  .00018523  00000+0  13816-2 0  9997
2 56383  43.0039 340.0770 0001857 285.5772  74.4865 15.02563743 53147
STARLINK-6153           
1 56384U 23061L   24110.68953710  .00007885  00000+0  59776-3 0  9999
2 56384  43.0050 341.0833 0001440 263.4541  96.6138 15.02559589 53118
STARLINK-6173           
1 56385U 23061M   24110.69398597  .00005446  00000+0  41780-3 0  9994
2 56385  43.0034 341.1185 0001179 260.6516  99.4193 15.02546699 53112
STARLINK-5836           
1 56386U 23061N   24110.88231943  .00033532  00000+0  24842-2 0  9993
2 56386  43.0036 339.9513 0001428 266.9369  93.1310 15.02555961 53144
STARLINK-6178           
1 56387U 23061P   24110.69065778  .00006077  00000+0  46441-3 0  9998
2 56387  43.0023 341.0918 0000825 230.9566 129.1203 15.02546531 53115
STARLINK-6176           
1 56388U 23061Q   24110.67401025  .00015136  00000+0  11328-2 0  9997
2 56388  43.0040 340.9649 0000882 261.7376  98.3367 15.02547842 53112
STARLINK-6145           
1 56389U 23061R   24110.68622244  .00006731  00000+0  51293-3 0  9994
2 56389  43.0067 341.0600 0001559 284.4013  75.6656 15.02532780 53117
STARLINK-6300           
1 56390U 23061S   24110.67993384  .00021637  00000+0  16106-2 0  9996
2 56390  43.0031 328.8805 0001722 262.9694  97.0952 15.02565483 53256
STARLINK-6298           
1 56391U 23061T   24110.67955280  .00002673  00000+0  21287-3 0  9996
2 56391  43.0057 341.0032 0001345 242.5649 117.5056 15.02542005 53112
STARLINK-6301           
1 56392U 23061U   24110.88157607  .00008077  00000+0  61199-3 0  9997
2 56392  43.0047 327.8115 0001567 242.2992 117.7692 15.02555572 53289
STARLINK-6303           
1 56393U 23061V   24110.87566020 -.00001911  00000+0 -12636-3 0  9994
2 56393  43.0042 339.8986 0001295 257.0066 103.0632 15.02553751 53142
STARLINK-6305           
1 56394U 23061W   24110.93696904  .00001589  00000+0  13270-3 0  9991
2 56394  43.0044 327.3666 0001296 252.3615 107.7086 15.02532262 53295
STARLINK-6273           
1 56395U 23061X   24110.87380672  .00004058  00000+0  31522-3 0  9991
2 56395  43.0071 327.7566 0001508 270.0062  90.0607 15.02547858 53995
STARLINK-6302           
1 56396U 23061Y   24110.93141371  .00014278  00000+0  10690-2 0  9997
2 56396  43.0026 327.3248 0000959 263.3966  96.6767 15.02568018 48428
STARLINK-6271           
1 56397U 23061Z   24110.61012310  .00013197  00000+0  98979-3 0  9999
2 56397  43.0038 329.2108 0001538 224.8421 135.2297 15.02549587 53536
STARLINK-6288           
1 56398U 23061AA  24110.92808177  .00008352  00000+0  63228-3 0  9994
2 56398  43.0033 327.3011 0000996 276.4985  83.5744 15.02556107 53290
STARLINK-6277           
1 56399U 23061AB  24110.86715354  .00034331  00000+0  25417-2 0  9995
2 56399  43.0031 327.7039 0001294 264.9155  95.1540 15.02571230 53282
STARLINK-6267           
1 56400U 23061AC  24110.92253713 -.00002198  00000+0 -14760-3 0  9999
2 56400  43.0044 327.2594 0001381 269.8315  90.2369 15.02547985 53295
STARLINK-6256           
1 56401U 23061AD  24110.93057571  .00000700  00000+0  66913-4 0  9998
2 56401  43.0035 314.3121 0000882 267.7098  92.3643 15.02526446 53443
STARLINK-6284           
1 56403U 23061AF  24110.85827564  .00006754  00000+0  51434-3 0  9994
2 56403  43.0031 327.6371 0001392 265.7697  94.2986 15.02553640 53284
STARLINK-6287           
1 56404U 23061AG  24110.84717774  .00031761  00000+0  23545-2 0  9992
2 56404  43.0033 327.5523 0001534 257.8076 102.2595 15.02553279 53280
STARLINK-6285           
1 56405U 23061AH  24110.91921644  .00005186  00000+0  39879-3 0  9994
2 56405  43.0035 327.2346 0001138 284.0716  76.0000 15.02524877 53298
STARLINK-6283           
1 56406U 23061AJ  24110.63886769  .00002467  00000+0  19764-3 0  9992
2 56406  43.0043 328.5657 0001089 265.4744  94.5974 15.02532613 53254
STARLINK-6282           
1 56407U 23061AK  24110.84939607  .00032136  00000+0  23805-2 0  9992
2 56407  43.0039 327.5705 0001599 279.6158  80.4504 15.02577051 53286
STARLINK-6289           
1 56408U 23061AL  24110.63664325  .00029628  00000+0  21979-2 0  9994
2 56408  43.0063 328.5333 0001693 223.9517 136.1191 15.02556465 53252
STARLINK-6241           
1 56409U 23061AM  24110.77737082  .00006704  00000+0  51067-3 0  9993
2 56409  43.0038 327.8877 0001168 269.5869  90.4839 15.02548465 53277
STARLINK-6281           
1 56410U 23061AN  24110.62998640  .00002059  00000+0  16738-3 0  9993
2 56410  43.0018 328.4972 0001256 268.8050  91.2648 15.02548147 53546
STARLINK-6279           
1 56411U 23061AP  24110.84162441  .00008708  00000+0  65856-3 0  9992
2 56411  43.0034 327.5072 0001345 273.8917  86.1771 15.02557176 53286
STARLINK-6278           
1 56412U 23061AQ  24110.62444162  .00005279  00000+0  40554-3 0  9990
2 56412  43.0032 328.4594 0001383 289.4256  70.6436 15.02540651 53258
STARLINK-6258           
1 56413U 23061AR  24110.63331948  .00012144  00000+0  91223-3 0  9997
2 56413  43.0039 328.5264 0001521 283.7860  76.2814 15.02547257 53254
STARLINK-5136           
1 56414U 23061AS  24110.88590241  .00039352  00000+0  29087-2 0  9996
2 56414  43.0034 326.9786 0001742 274.1432  85.9212 15.02576879 53290
STARLINK-6268           
1 56415U 23061AT  24110.62776613  .00002219  00000+0  17926-3 0  9990
2 56415  43.0026 328.4828 0001187 317.6736  42.4015 15.02534368 53543
STARLINK-6260           
1 56416U 23061AU  24110.87074005  .00040030  00000+0  29582-2 0  9997
2 56416  43.0033 314.7207 0001287 260.9316  99.1381 15.02578197 53437
STARLINK-6261           
1 56417U 23061AV  24110.88701649  .00034711  00000+0  25704-2 0  9991
2 56417  43.0036 326.9878 0001641 260.5087  99.5570 15.02557920 53294
STARLINK-5356           
1 56418U 23061AW  24110.92278525  .00018716  00000+0  13956-2 0  9992
2 56418  43.0024 314.2479 0001668 245.7733 114.2935 15.02570284 53446
STARLINK-5350           
1 56419U 23061AX  24110.68425334  .00005221  00000+0  40121-3 0  9990
2 56419  43.0045 328.0474 0001736 265.0681  94.9964 15.02541588 53262
STARLINK-6272           
1 56420U 23061AY  24110.91946396  .00029264  00000+0  21714-2 0  9993
2 56420  43.0034 314.2272 0001392 264.2503  95.8181 15.02553174 53442
STARLINK-6270           
1 56421U 23061AZ  24110.60705155  .00007408  00000+0  56266-3 0  9993
2 56421  43.0033 316.1770 0001484 254.9817 105.0861 15.02549011 53682
STARLINK-6236           
1 56422U 23061BA  24110.84743840  .00002811  00000+0  22306-3 0  9994
2 56422  43.0032 314.5456 0001523 257.1012 102.9660 15.02541063 53436
STARLINK-6239           
1 56423U 23061BB  24110.84965104  .00040340  00000+0  29806-2 0  9994
2 56423  43.0041 314.5651 0001526 267.4585  92.6083 15.02580725 53438
STARLINK-6242           
1 56424U 23061BC  24110.84076842  .00012030  00000+0  90335-3 0  9998
2 56424  43.0032 314.4952 0001429 252.9097 107.1588 15.02566052 53430
STARLINK-6224           
1 56425U 23061BD  24110.91058008  .00009233  00000+0  69741-3 0  9999
2 56425  43.0030 314.1588 0001451 259.5451 100.5228 15.02550633 53440
STARLINK-5352           
1 56426U 23061BE  24110.88738974  .00053170  00000+0  39178-2 0  9992
2 56426  43.0032 314.8300 0001518 269.0958  90.9710 15.02569381 53431
STARLINK-5724           
1 56427U 23061BF  24110.61039361  .00022033  00000+0  16400-2 0  9995
2 56427  43.0032 316.1937 0001460 283.9062  76.1618 15.02557957 53686
STARLINK-6238           
1 56428U 23061BG  24110.89947930  .00006013  00000+0  45964-3 0  9994
2 56428  43.0033 314.0720 0001393 269.0530  91.0153 15.02551985 53444
STARLINK-6264           
1 56429U 23061BH  24110.89615375  .00007199  00000+0  54733-3 0  9990
2 56429  43.0066 314.0450 0001835 251.7474 108.3169 15.02545284 53441
TROPICS-05              
1 56442U 23062A   24110.42356449  .00025644  00000+0  13033-2 0  9991
2 56442  32.7353 108.3908 0009713 294.3551  65.6106 15.15792177 52550
TROPICS-06              
1 56444U 23062C   24110.39199383  .00024073  00000+0  11675-2 0  9996
2 56444  32.7353 104.2054 0013623 295.0050  64.9208 15.17386803 52569
STARLINK-5990           
1 56448U 23064A   24110.92266140  .00010237  00000+0  86436-3 0  9992
2 56448  70.0028  81.1590 0002385 290.2703  69.8200 14.98335773 52070
STARLINK-5993           
1 56449U 23064B   24110.94335936  .00002559  00000+0  22216-3 0  9999
2 56449  70.0007  81.2280 0002405 264.5391  95.5494 14.98329384 52077
STARLINK-5970           
1 56450U 23064C   24110.91820761  .00029005  00000+0  24139-2 0  9993
2 56450  69.9993  81.1403 0004100 262.1820  97.8873 14.98561956 52070
STARLINK-5985           
1 56451U 23064D   24110.93918905  .00002945  00000+0  25447-3 0  9992
2 56451  69.9980  81.2090 0003327 278.2477  81.8304 14.98330310 52076
